{
  "norad_id": 66878,
  "name": "STARLINK-35866",
  "history": [
    {
      "epoch": "2026-03-28T22:40:22.650240",
      "apogee_km": 476.02105493298495,
      "perigee_km": 474.4159990685612,
      "latitude_deg": 51.64390405149046,
      "longitude_deg": -121.50816640001722,
      "semi_major_axis_km": 6853.355527000773,
      "eccentricity": 0.0001171,
      "inclination_deg": 53.1594,
      "raan_deg": 294.6307,
      "arg_perigee_deg": 99.2716,
      "mean_anomaly_deg": 260.8417,
      "mean_motion_rev_day": 15.30198842
    }
  ]
}